[
  {
    "OBJECT_NAME": "STARLINK-5227",
    "OBJECT_ID": "22141AA",
    "EPOCH": "2025-11-11T00:09:19.401120",
    "MEAN_MOTION": 15.08843039,
    "ECCENTRICITY": 0.0001669,
    "INCLINATION": 53.2154,
    "RA_OF_ASC_NODE": 176.6845,
    "ARG_OF_PERICENTER": 91.1469,
    "MEAN_ANOMALY": 268.9714,
    "EPHEMERIS_TYPE": 0,
    "CLASSIFICATION_TYPE": "U",
    "NORAD_CAT_ID": 54181,
    "ELEMENT_SET_NO": 999,
    "REV_AT_EPOCH": 16794,
    "BSTAR": 5.5816e-05,
    "MEAN_MOTION_DOT": 6e-06,
    "MEAN_MOTION_DDOT": 0.0,
    "TLE_LINE1": "1 54181U 22141AA  25315.00647455  .00000600  00000+0  55816-4 0  9990",
    "TLE_LINE2": "2 54181  53.2154 176.6845 0001669  91.1469 268.9714 15.08843039167945",
    "COMMENT": "Grouped by shell and plane from TLE"
  },
  {
    "OBJECT_NAME": "STARLINK-5239",
    "OBJECT_ID": "22141AC",
    "EPOCH": "2025-11-10T22:12:42.613344",
    "MEAN_MOTION": 15.08843665,
    "ECCENTRICITY": 0.000174,
    "INCLINATION": 53.2123,
    "RA_OF_ASC_NODE": 176.8905,
    "ARG_OF_PERICENTER": 90.0955,
    "MEAN_ANOMALY": 270.0237,
    "EPHEMERIS_TYPE": 0,
    "CLASSIFICATION_TYPE": "U",
    "NORAD_CAT_ID": 54183,
    "ELEMENT_SET_NO": 999,
    "REV_AT_EPOCH": 16793,
    "BSTAR": 4.637700000000001e-05,
    "MEAN_MOTION_DOT": 4.5e-06,
    "MEAN_MOTION_DDOT": 0.0,
    "TLE_LINE1": "1 54183U 22141AC  25314.92549321  .00000450  00000+0  46377-4 0  9990",
    "TLE_LINE2": "2 54183  53.2123 176.8905 0001740  90.0955 270.0237 15.08843665167938",
    "COMMENT": "Grouped by shell and plane from TLE"
  },
  {
    "OBJECT_NAME": "STARLINK-5162",
    "OBJECT_ID": "22141AD",
    "EPOCH": "2025-11-11T01:30:17.326656",
    "MEAN_MOTION": 15.08839981,
    "ECCENTRICITY": 0.0001321,
    "INCLINATION": 53.2165,
    "RA_OF_ASC_NODE": 177.0165,
    "ARG_OF_PERICENTER": 93.1452,
    "MEAN_ANOMALY": 266.9692,
    "EPHEMERIS_TYPE": 0,
    "CLASSIFICATION_TYPE": "U",
    "NORAD_CAT_ID": 54184,
    "ELEMENT_SET_NO": 999,
    "REV_AT_EPOCH": 16794,
    "BSTAR": 8.439e-05,
    "MEAN_MOTION_DOT": 1.055e-05,
    "MEAN_MOTION_DDOT": 0.0,
    "TLE_LINE1": "1 54184U 22141AD  25315.06270054  .00001055  00000+0  84390-4 0  9990",
    "TLE_LINE2": "2 54184  53.2165 177.0165 0001321  93.1452 266.9692 15.08839981167943",
    "COMMENT": "Grouped by shell and plane from TLE"
  },
  {
    "OBJECT_NAME": "STARLINK-5235",
    "OBJECT_ID": "22141AE",
    "EPOCH": "2025-11-11T01:39:23.953536",
    "MEAN_MOTION": 15.08843503,
    "ECCENTRICITY": 0.0001584,
    "INCLINATION": 53.2148,
    "RA_OF_ASC_NODE": 176.3636,
    "ARG_OF_PERICENTER": 89.3403,
    "MEAN_ANOMALY": 270.777,
    "EPHEMERIS_TYPE": 0,
    "CLASSIFICATION_TYPE": "U",
    "NORAD_CAT_ID": 54185,
    "ELEMENT_SET_NO": 999,
    "REV_AT_EPOCH": 16795,
    "BSTAR": 8.557000000000001e-05,
    "MEAN_MOTION_DOT": 1.074e-05,
    "MEAN_MOTION_DDOT": 0.0,
    "TLE_LINE1": "1 54185U 22141AE  25315.06902724  .00001074  00000+0  85570-4 0  9999",
    "TLE_LINE2": "2 54185  53.2148 176.3636 0001584  89.3403 270.7770 15.08843503167950",
    "COMMENT": "Grouped by shell and plane from TLE"
  },
  {
    "OBJECT_NAME": "STARLINK-5240",
    "OBJECT_ID": "22141AG",
    "EPOCH": "2025-11-11T00:14:37.611456",
    "MEAN_MOTION": 15.08848711,
    "ECCENTRICITY": 0.0001173,
    "INCLINATION": 53.2146,
    "RA_OF_ASC_NODE": 176.7195,
    "ARG_OF_PERICENTER": 83.4403,
    "MEAN_ANOMALY": 276.6723,
    "EPHEMERIS_TYPE": 0,
    "CLASSIFICATION_TYPE": "U",
    "NORAD_CAT_ID": 54187,
    "ELEMENT_SET_NO": 999,
    "REV_AT_EPOCH": 16794,
    "BSTAR": 0.0002954,
    "MEAN_MOTION_DOT": 4.418e-05,
    "MEAN_MOTION_DDOT": 0.0,
    "TLE_LINE1": "1 54187U 22141AG  25315.01015754  .00004418  00000+0  29540-3 0  9993",
    "TLE_LINE2": "2 54187  53.2146 176.7195 0001173  83.4403 276.6723 15.08848711167941",
    "COMMENT": "Grouped by shell and plane from TLE"
  },
  {
    "OBJECT_NAME": "STARLINK-5879",
    "OBJECT_ID": "23090BE",
    "EPOCH": "2025-11-11T01:14:39.846048",
    "MEAN_MOTION": 15.02526361,
    "ECCENTRICITY": 0.0001277,
    "INCLINATION": 43.0032,
    "RA_OF_ASC_NODE": 173.5598,
    "ARG_OF_PERICENTER": 277.0879,
    "MEAN_ANOMALY": 82.9818,
    "EPHEMERIS_TYPE": 0,
    "CLASSIFICATION_TYPE": "U",
    "NORAD_CAT_ID": 57153,
    "ELEMENT_SET_NO": 999,
    "REV_AT_EPOCH": 13236,
    "BSTAR": 0.0,
    "MEAN_MOTION_DOT": -6.08e-06,
    "MEAN_MOTION_DDOT": 0.0,
    "TLE_LINE1": "1 57153U 23090BE  25315.05185007 -.00000608  00000+0 -29916-4 0  9993",
    "TLE_LINE2": "2 57153  43.0032 173.5598 0001277 277.0879  82.9818 15.02526361132362",
    "COMMENT": "Grouped by shell and plane from TLE"
  },
  {
    "OBJECT_NAME": "STARLINK-6290",
    "OBJECT_ID": "23099A",
    "EPOCH": "2025-11-11T00:47:35.692800",
    "MEAN_MOTION": 15.02535019,
    "ECCENTRICITY": 0.0001432,
    "INCLINATION": 43.0042,
    "RA_OF_ASC_NODE": 174.061,
    "ARG_OF_PERICENTER": 276.0833,
    "MEAN_ANOMALY": 83.9846,
    "EPHEMERIS_TYPE": 0,
    "CLASSIFICATION_TYPE": "U",
    "NORAD_CAT_ID": 57328,
    "ELEMENT_SET_NO": 999,
    "REV_AT_EPOCH": 12917,
    "BSTAR": 5.7535000000000004e-05,
    "MEAN_MOTION_DOT": 5.74e-06,
    "MEAN_MOTION_DDOT": 0.0,
    "TLE_LINE1": "1 57328U 23099A   25315.03305200  .00000574  00000+0  57535-4 0  9991",
    "TLE_LINE2": "2 57328  43.0042 174.0610 0001432 276.0833  83.9846 15.02535019129177",
    "COMMENT": "Grouped by shell and plane from TLE"
  },
  {
    "OBJECT_NAME": "STARLINK-6138",
    "OBJECT_ID": "23099B",
    "EPOCH": "2025-11-11T06:56:07.724256",
    "MEAN_MOTION": 15.02538274,
    "ECCENTRICITY": 9.15e-05,
    "INCLINATION": 43.002,
    "RA_OF_ASC_NODE": 172.5338,
    "ARG_OF_PERICENTER": 268.0363,
    "MEAN_ANOMALY": 92.0374,
    "EPHEMERIS_TYPE": 0,
    "CLASSIFICATION_TYPE": "U",
    "NORAD_CAT_ID": 57329,
    "ELEMENT_SET_NO": 999,
    "REV_AT_EPOCH": 12830,
    "BSTAR": 4.3073e-05,
    "MEAN_MOTION_DOT": 3.78e-06,
    "MEAN_MOTION_DDOT": 0.0,
    "TLE_LINE1": "1 57329U 23099B   25315.28897829  .00000378  00000+0  43073-4 0  9996",
    "TLE_LINE2": "2 57329  43.0020 172.5338 0000915 268.0363  92.0374 15.02538274128305",
    "COMMENT": "Grouped by shell and plane from TLE"
  },
  {
    "OBJECT_NAME": "STARLINK-6212",
    "OBJECT_ID": "23099C",
    "EPOCH": "2025-11-11T07:05:42.892512",
    "MEAN_MOTION": 15.02545372,
    "ECCENTRICITY": 0.0001241,
    "INCLINATION": 43.0035,
    "RA_OF_ASC_NODE": 172.5899,
    "ARG_OF_PERICENTER": 267.3401,
    "MEAN_ANOMALY": 92.73,
    "EPHEMERIS_TYPE": 0,
    "CLASSIFICATION_TYPE": "U",
    "NORAD_CAT_ID": 57330,
    "ELEMENT_SET_NO": 999,
    "REV_AT_EPOCH": 12830,
    "BSTAR": 3.5197e-05,
    "MEAN_MOTION_DOT": 2.72e-06,
    "MEAN_MOTION_DDOT": 0.0,
    "TLE_LINE1": "1 57330U 23099C   25315.29563533  .00000272  00000+0  35197-4 0  9992",
    "TLE_LINE2": "2 57330  43.0035 172.5899 0001241 267.3401  92.7300 15.02545372128306",
    "COMMENT": "Grouped by shell and plane from TLE"
  },
  {
    "OBJECT_NAME": "STARLINK-6234",
    "OBJECT_ID": "23099D",
    "EPOCH": "2025-11-11T00:41:12.323904",
    "MEAN_MOTION": 15.02537067,
    "ECCENTRICITY": 0.0001411,
    "INCLINATION": 43.0035,
    "RA_OF_ASC_NODE": 174.0256,
    "ARG_OF_PERICENTER": 256.5139,
    "MEAN_ANOMALY": 103.5546,
    "EPHEMERIS_TYPE": 0,
    "CLASSIFICATION_TYPE": "U",
    "NORAD_CAT_ID": 57331,
    "ELEMENT_SET_NO": 999,
    "REV_AT_EPOCH": 12826,
    "BSTAR": 8.3956e-06,
    "MEAN_MOTION_DOT": -9e-07,
    "MEAN_MOTION_DDOT": 0.0,
    "TLE_LINE1": "1 57331U 23099D   25315.02861486 -.00000090  00000+0  83956-5 0  9998",
    "TLE_LINE2": "2 57331  43.0035 174.0256 0001411 256.5139 103.5546 15.02537067128268",
    "COMMENT": "Grouped by shell and plane from TLE"
  },
  {
    "OBJECT_NAME": "STARLINK-5831",
    "OBJECT_ID": "23099E",
    "EPOCH": "2025-11-11T00:38:00.067488",
    "MEAN_MOTION": 15.02557535,
    "ECCENTRICITY": 9.54e-05,
    "INCLINATION": 43.0037,
    "RA_OF_ASC_NODE": 174.0057,
    "ARG_OF_PERICENTER": 281.8869,
    "MEAN_ANOMALY": 78.1866,
    "EPHEMERIS_TYPE": 0,
    "CLASSIFICATION_TYPE": "U",
    "NORAD_CAT_ID": 57332,
    "ELEMENT_SET_NO": 999,
    "REV_AT_EPOCH": 12826,
    "BSTAR": 0.0,
    "MEAN_MOTION_DOT": -2.722e-05,
    "MEAN_MOTION_DDOT": 0.0,
    "TLE_LINE1": "1 57332U 23099E   25315.02638967 -.00002722  00000+0 -18637-3 0  9992",
    "TLE_LINE2": "2 57332  43.0037 174.0057 0000954 281.8869  78.1866 15.02557535128266",
    "COMMENT": "Grouped by shell and plane from TLE"
  },
  {
    "OBJECT_NAME": "STARLINK-5585",
    "OBJECT_ID": "23099F",
    "EPOCH": "2025-11-11T06:59:19.601376",
    "MEAN_MOTION": 15.02534915,
    "ECCENTRICITY": 8.89e-05,
    "INCLINATION": 43.0028,
    "RA_OF_ASC_NODE": 172.5539,
    "ARG_OF_PERICENTER": 265.6697,
    "MEAN_ANOMALY": 94.4044,
    "EPHEMERIS_TYPE": 0,
    "CLASSIFICATION_TYPE": "U",
    "NORAD_CAT_ID": 57333,
    "ELEMENT_SET_NO": 999,
    "REV_AT_EPOCH": 12830,
    "BSTAR": 2.3109e-05,
    "MEAN_MOTION_DOT": 1.09e-06,
    "MEAN_MOTION_DDOT": 0.0,
    "TLE_LINE1": "1 57333U 23099F   25315.29119909  .00000109  00000+0  23109-4 0  9998",
    "TLE_LINE2": "2 57333  43.0028 172.5539 0000889 265.6697  94.4044 15.02534915128302",
    "COMMENT": "Grouped by shell and plane from TLE"
  },
  {
    "OBJECT_NAME": "STARLINK-5589",
    "OBJECT_ID": "23099G",
    "EPOCH": "2025-11-11T00:28:26.710176",
    "MEAN_MOTION": 15.02532815,
    "ECCENTRICITY": 5.35e-05,
    "INCLINATION": 43.001,
    "RA_OF_ASC_NODE": 173.9519,
    "ARG_OF_PERICENTER": 270.3733,
    "MEAN_ANOMALY": 89.7048,
    "EPHEMERIS_TYPE": 0,
    "CLASSIFICATION_TYPE": "U",
    "NORAD_CAT_ID": 57334,
    "ELEMENT_SET_NO": 999,
    "REV_AT_EPOCH": 12826,
    "BSTAR": 0.0,
    "MEAN_MOTION_DOT": -3.07e-06,
    "MEAN_MOTION_DDOT": 0.0,
    "TLE_LINE1": "1 57334U 23099G   25315.01975359 -.00000307  00000+0 -76850-5 0  9992",
    "TLE_LINE2": "2 57334  43.0010 173.9519 0000535 270.3733  89.7048 15.02532815128262",
    "COMMENT": "Grouped by shell and plane from TLE"
  }
]